CCSDS_OMM_VERS = 2.0
CREATION_DATE  = 
ORIGINATOR     = 

OBJECT_NAME    = SL-14 R/B
OBJECT_ID      = 1988-001B
CENTER_NAME    = EARTH
REF_FRAME      = TEME
TIME_SYSTEM    = UTC
MEAN_ELEMENT_THEORY = SGP/SGP4

EPOCH          = 2025-11-22T23:22:15.527712
MEAN_MOTION    = 14.85392594
ECCENTRICITY   = .0016791
INCLINATION    = 82.5112
RA_OF_ASC_NODE = 295.7406
ARG_OF_PERICENTER = 227.9770
MEAN_ANOMALY   = 132.0017

EPHEMERIS_TYPE = 0
CLASSIFICATION_TYPE = U
NORAD_CAT_ID   = 18749
ELEMENT_SET_NO = 999
REV_AT_EPOCH   = 2618
BSTAR          = .63167E-4
MEAN_MOTION_DOT = .569E-5
MEAN_MOTION_DDOT = 0

CCSDS_OMM_VERS = 2.0
CREATION_DATE  = 
ORIGINATOR     = 

OBJECT_NAME    = COSMOS 1933
OBJECT_ID      = 1988-020A
CENTER_NAME    = EARTH
REF_FRAME      = TEME
TIME_SYSTEM    = UTC
MEAN_ELEMENT_THEORY = SGP/SGP4

EPOCH          = 2025-11-23T02:18:32.690016
MEAN_MOTION    = 15.16886395
ECCENTRICITY   = .0003969
INCLINATION    = 82.5140
RA_OF_ASC_NODE = 356.2858
ARG_OF_PERICENTER = 187.1205
MEAN_ANOMALY   = 172.9973

EPHEMERIS_TYPE = 0
CLASSIFICATION_TYPE = U
NORAD_CAT_ID   = 18958
ELEMENT_SET_NO = 999
REV_AT_EPOCH   = 3406
BSTAR          = .23274E-3
MEAN_MOTION_DOT = .4612E-4
MEAN_MOTION_DDOT = 0

CCSDS_OMM_VERS = 2.0
CREATION_DATE  = 
ORIGINATOR     = 

OBJECT_NAME    = SL-3 R/B
OBJECT_ID      = 1988-032B
CENTER_NAME    = EARTH
REF_FRAME      = TEME
TIME_SYSTEM    = UTC
MEAN_ELEMENT_THEORY = SGP/SGP4

EPOCH          = 2025-11-23T02:15:00.437184
MEAN_MOTION    = 15.18456088
ECCENTRICITY   = .0024966
INCLINATION    = 97.5064
RA_OF_ASC_NODE = 305.9562
ARG_OF_PERICENTER = 243.9012
MEAN_ANOMALY   = 115.9652

EPHEMERIS_TYPE = 0
CLASSIFICATION_TYPE = U
NORAD_CAT_ID   = 19046
ELEMENT_SET_NO = 999
REV_AT_EPOCH   = 3592
BSTAR          = .2822E-3
MEAN_MOTION_DOT = .579E-4
MEAN_MOTION_DDOT = 0

CCSDS_OMM_VERS = 2.0
CREATION_DATE  = 
ORIGINATOR     = 

OBJECT_NAME    = SL-16 R/B
OBJECT_ID      = 1988-039B
CENTER_NAME    = EARTH
REF_FRAME      = TEME
TIME_SYSTEM    = UTC
MEAN_ELEMENT_THEORY = SGP/SGP4

EPOCH          = 2025-11-23T02:06:05.798304
MEAN_MOTION    = 14.19591756
ECCENTRICITY   = .002051
INCLINATION    = 71.0142
RA_OF_ASC_NODE = 293.9508
ARG_OF_PERICENTER = 148.9963
MEAN_ANOMALY   = 211.2377

EPHEMERIS_TYPE = 0
CLASSIFICATION_TYPE = U
NORAD_CAT_ID   = 19120
ELEMENT_SET_NO = 999
REV_AT_EPOCH   = 94325
BSTAR          = .9981E-4
MEAN_MOTION_DOT = .163E-5
MEAN_MOTION_DDOT = 0

CCSDS_OMM_VERS = 2.0
CREATION_DATE  = 
ORIGINATOR     = 

OBJECT_NAME    = COSMOS 1953
OBJECT_ID      = 1988-050A
CENTER_NAME    = EARTH
REF_FRAME      = TEME
TIME_SYSTEM    = UTC
MEAN_ELEMENT_THEORY = SGP/SGP4

EPOCH          = 2025-11-22T21:52:12.582336
MEAN_MOTION    = 15.26605029
ECCENTRICITY   = .001326
INCLINATION    = 82.5091
RA_OF_ASC_NODE = 265.4710
ARG_OF_PERICENTER = 131.9551
MEAN_ANOMALY   = 228.2820

EPHEMERIS_TYPE = 0
CLASSIFICATION_TYPE = U
NORAD_CAT_ID   = 19210
ELEMENT_SET_NO = 999
REV_AT_EPOCH   = 2148
BSTAR          = .2366E-3
MEAN_MOTION_DOT = .6242E-4
MEAN_MOTION_DDOT = 0

CCSDS_OMM_VERS = 2.0
CREATION_DATE  = 
ORIGINATOR     = 

OBJECT_NAME    = SL-8 R/B
OBJECT_ID      = 1988-053B
CENTER_NAME    = EARTH
REF_FRAME      = TEME
TIME_SYSTEM    = UTC
MEAN_ELEMENT_THEORY = SGP/SGP4

EPOCH          = 2025-11-23T03:28:15.083328
MEAN_MOTION    = 14.38842108
ECCENTRICITY   = .0019557
INCLINATION    = 74.0468
RA_OF_ASC_NODE = 308.8351
ARG_OF_PERICENTER = 159.4860
MEAN_ANOMALY   = 275.8129

EPHEMERIS_TYPE = 0
CLASSIFICATION_TYPE = U
NORAD_CAT_ID   = 19257
ELEMENT_SET_NO = 999
REV_AT_EPOCH   = 96127
BSTAR          = .78312E-4
MEAN_MOTION_DOT = .215E-5
MEAN_MOTION_DDOT = 0

CCSDS_OMM_VERS = 2.0
CREATION_DATE  = 
ORIGINATOR     = 

OBJECT_NAME    = COSMOS 1975
OBJECT_ID      = 1988-093A
CENTER_NAME    = EARTH
REF_FRAME      = TEME
TIME_SYSTEM    = UTC
MEAN_ELEMENT_THEORY = SGP/SGP4

EPOCH          = 2025-11-23T02:41:41.765280
MEAN_MOTION    = 15.26045538
ECCENTRICITY   = .001113
INCLINATION    = 82.5217
RA_OF_ASC_NODE = 224.4685
ARG_OF_PERICENTER = 176.4506
MEAN_ANOMALY   = 183.6813

EPHEMERIS_TYPE = 0
CLASSIFICATION_TYPE = U
NORAD_CAT_ID   = 19573
ELEMENT_SET_NO = 999
REV_AT_EPOCH   = 314
BSTAR          = .31679E-3
MEAN_MOTION_DOT = .8201E-4
MEAN_MOTION_DDOT = 0

CCSDS_OMM_VERS = 2.0
CREATION_DATE  = 
ORIGINATOR     = 

OBJECT_NAME    = SL-14 R/B
OBJECT_ID      = 1988-093B
CENTER_NAME    = EARTH
REF_FRAME      = TEME
TIME_SYSTEM    = UTC
MEAN_ELEMENT_THEORY = SGP/SGP4

EPOCH          = 2025-11-22T23:34:08.947200
MEAN_MOTION    = 14.85518651
ECCENTRICITY   = .002162
INCLINATION    = 82.5292
RA_OF_ASC_NODE = 142.2090
ARG_OF_PERICENTER = 34.8176
MEAN_ANOMALY   = 80.0685

EPHEMERIS_TYPE = 0
CLASSIFICATION_TYPE = U
NORAD_CAT_ID   = 19574
ELEMENT_SET_NO = 999
REV_AT_EPOCH   = 98519
BSTAR          = .57229E-4
MEAN_MOTION_DOT = .52E-5
MEAN_MOTION_DDOT = 0

CCSDS_OMM_VERS = 2.0
CREATION_DATE  = 
ORIGINATOR     = 

OBJECT_NAME    = SL-16 R/B
OBJECT_ID      = 1988-102B
CENTER_NAME    = EARTH
REF_FRAME      = TEME
TIME_SYSTEM    = UTC
MEAN_ELEMENT_THEORY = SGP/SGP4

EPOCH          = 2025-11-23T02:30:06.088896
MEAN_MOTION    = 14.16133971
ECCENTRICITY   = .0014159
INCLINATION    = 71.0009
RA_OF_ASC_NODE = 15.7587
ARG_OF_PERICENTER = 182.4301
MEAN_ANOMALY   = 177.6755

EPHEMERIS_TYPE = 0
CLASSIFICATION_TYPE = U
NORAD_CAT_ID   = 19650
ELEMENT_SET_NO = 999
REV_AT_EPOCH   = 91180
BSTAR          = .18013E-3
MEAN_MOTION_DOT = .309E-5
MEAN_MOTION_DDOT = 0

CCSDS_OMM_VERS = 2.0
CREATION_DATE  = 
ORIGINATOR     = 

OBJECT_NAME    = INTERCOSMOS 24
OBJECT_ID      = 1989-080A
CENTER_NAME    = EARTH
REF_FRAME      = TEME
TIME_SYSTEM    = UTC
MEAN_ELEMENT_THEORY = SGP/SGP4

EPOCH          = 2025-11-23T00:57:52.699392
MEAN_MOTION    = 12.59390887
ECCENTRICITY   = .1188458
INCLINATION    = 82.6054
RA_OF_ASC_NODE = 173.7620
ARG_OF_PERICENTER = 180.2103
MEAN_ANOMALY   = 179.8666

EPHEMERIS_TYPE = 0
CLASSIFICATION_TYPE = U
NORAD_CAT_ID   = 20261
ELEMENT_SET_NO = 999
REV_AT_EPOCH   = 65337
BSTAR          = .25938E-3
MEAN_MOTION_DOT = .893E-5
MEAN_MOTION_DDOT = 0

CCSDS_OMM_VERS = 2.0
CREATION_DATE  = 
ORIGINATOR     = 

OBJECT_NAME    = SL-14 R/B
OBJECT_ID      = 1989-080C
CENTER_NAME    = EARTH
REF_FRAME      = TEME
TIME_SYSTEM    = UTC
MEAN_ELEMENT_THEORY = SGP/SGP4

EPOCH          = 2025-11-22T19:44:05.474112
MEAN_MOTION    = 12.50390081
ECCENTRICITY   = .1231052
INCLINATION    = 82.5939
RA_OF_ASC_NODE = 241.8021
ARG_OF_PERICENTER = 69.0960
MEAN_ANOMALY   = 303.7346

EPHEMERIS_TYPE = 0
CLASSIFICATION_TYPE = U
NORAD_CAT_ID   = 20262
ELEMENT_SET_NO = 999
REV_AT_EPOCH   = 64679
BSTAR          = .12007E-3
MEAN_MOTION_DOT = .428E-5
MEAN_MOTION_DDOT = 0

CCSDS_OMM_VERS = 2.0
CREATION_DATE  = 
ORIGINATOR     = 

OBJECT_NAME    = DELTA 1 R/B
OBJECT_ID      = 1989-089B
CENTER_NAME    = EARTH
REF_FRAME      = TEME
TIME_SYSTEM    = UTC
MEAN_ELEMENT_THEORY = SGP/SGP4

EPOCH          = 2025-11-23T02:50:20.535072
MEAN_MOTION    = 14.50548853
ECCENTRICITY   = .0070747
INCLINATION    = 97.0768
RA_OF_ASC_NODE = 186.4641
ARG_OF_PERICENTER = 99.1197
MEAN_ANOMALY   = 261.8014

EPHEMERIS_TYPE = 0
CLASSIFICATION_TYPE = U
NORAD_CAT_ID   = 20323
ELEMENT_SET_NO = 999
REV_AT_EPOCH   = 88028
BSTAR          = .10241E-3
MEAN_MOTION_DOT = .379E-5
MEAN_MOTION_DDOT = 0

