SL-14 R/B               
1 18749U 88001B   25326.97379083  .00000569  00000+0  63167-4 0  9996
2 18749  82.5112 295.7406 0016791 227.9770 132.0017 14.85392594 26182
COSMOS 1933             
1 18958U 88020A   25327.09621169  .00004612  00000+0  23274-3 0  9995
2 18958  82.5140 356.2858 0003969 187.1205 172.9973 15.16886395 34064
SL-3 R/B                
1 19046U 88032B   25327.09375506  .00005790  00000+0  28220-3 0  9992
2 19046  97.5064 305.9562 0024966 243.9012 115.9652 15.18456088 35925
SL-16 R/B               
1 19120U 88039B   25327.08756711  .00000163  00000+0  99810-4 0  9995
2 19120  71.0142 293.9508 0020510 148.9963 211.2377 14.19591756943258
COSMOS 1953             
1 19210U 88050A   25326.91125674  .00006242  00000+0  23660-3 0  9990
2 19210  82.5091 265.4710 0013260 131.9551 228.2820 15.26605029 21487
SL-8 R/B                
1 19257U 88053B   25327.14461902  .00000215  00000+0  78312-4 0  9996
2 19257  74.0468 308.8351 0019557 159.4860 275.8129 14.38842108961271
COSMOS 1975             
1 19573U 88093A   25327.11228895  .00008201  00000+0  31679-3 0  9997
2 19573  82.5217 224.4685 0011130 176.4506 183.6813 15.26045538  3145
SL-14 R/B               
1 19574U 88093B   25326.98204800  .00000520  00000+0  57229-4 0  9998
2 19574  82.5292 142.2090 0021620  34.8176  80.0685 14.85518651985197
SL-16 R/B               
1 19650U 88102B   25327.10423714  .00000309  00000+0  18013-3 0  9998
2 19650  71.0009  15.7587 0014159 182.4301 177.6755 14.16133971911805
INTERCOSMOS 24          
1 20261U 89080A   25327.04019328  .00000893  00000+0  25938-3 0  9991
2 20261  82.6054 173.7620 1188458 180.2103 179.8666 12.59390887653373
SL-14 R/B               
1 20262U 89080C   25326.82228558  .00000428  00000+0  12007-3 0  9991
2 20262  82.5939 241.8021 1231052  69.0960 303.7346 12.50390081646799
DELTA 1 R/B             
1 20323U 89089B   25327.11829323  .00000379  00000+0  10241-3 0  9991
2 20323  97.0768 186.4641 0070747  99.1197 261.8014 14.50548853880281
